[{"OBJECT_NAME":"STARLINK-35599","OBJECT_ID":"2025-236S","EPOCH":"2026-03-09T12:04:05.315520","MEAN_MOTION":15.30135876,"ECCENTRICITY":0.00012844,"INCLINATION":53.1587,"RA_OF_ASC_NODE":104.9039,"ARG_OF_PERICENTER":63.9084,"MEAN_ANOMALY":296.2049,"EPHEMERIS_TYPE":0,"CLASSIFICATION_TYPE":"U","NORAD_CAT_ID":66102,"ELEMENT_SET_NO":999,"REV_AT_EPOCH":2285,"BSTAR":0.00053310275,"MEAN_MOTION_DOT":0.00015432,"MEAN_MOTION_DDOT":0},{"OBJECT_NAME":"OBJECT BE","OBJECT_ID":"2025-313BE","EPOCH":"2026-03-09T16:43:59.380320","MEAN_MOTION":15.29801687,"ECCENTRICITY":0.00072083,"INCLINATION":97.3989,"RA_OF_ASC_NODE":145.3568,"ARG_OF_PERICENTER":335.3714,"MEAN_ANOMALY":24.7181,"EPHEMERIS_TYPE":0,"CLASSIFICATION_TYPE":"U","NORAD_CAT_ID":67482,"ELEMENT_SET_NO":999,"REV_AT_EPOCH":797,"BSTAR":0.0026504328,"MEAN_MOTION_DOT":0.00077178,"MEAN_MOTION_DDOT":0}]
